OBJECT_NAME,OBJECT_ID,EPOCH,MEAN_MOTION,ECCENTRICITY,INCLINATION,RA_OF_ASC_NODE,ARG_OF_PERICENTER,MEAN_ANOMALY,EPHEMERIS_TYPE,CLASSIFICATION_TYPE,NORAD_CAT_ID,ELEMENT_SET_NO,REV_AT_EPOCH,BSTAR,MEAN_MOTION_DOT,MEAN_MOTION_DDOT
PROBA-1,2001-049B,2026-06-18T20:41:57.028704,15.07497209,.0056497,97.9594,178.4534,116.3541,244.3503,0,U,26958,999,34387,.58473E-4,.848E-5,0
CUTE-1 (CO-55),2003-031E,2026-06-18T17:21:18.294624,14.24336519,.0009643,98.6736,178.2627,173.5600,186.5705,0,U,27844,999,19189,.11222E-3,.216E-5,0
CUBESAT XI-IV (CO-57),2003-031J,2026-06-17T22:32:30.413760,14.23621196,.0009073,98.6765,177.2007,194.7196,165.3719,0,U,27848,999,19148,.10079477E-3,.186E-5,0
APRIZESAT 4,2009-041D,2026-06-18T17:46:22.571328,14.83881043,.004231,98.1412,245.0920,317.8956,41.9009,0,U,35684,999,91159,.6387E-4,.479E-5,0
APRIZESAT 3,2009-041F,2026-06-18T10:28:31.064160,14.96245554,.0062803,98.2065,322.7199,63.7248,297.0406,0,U,35686,999,91656,.14062E-3,.1583E-4,0
PROBA-2,2009-059B,2026-06-18T18:05:05.453376,14.54863007,.0011947,98.2451,353.0845,276.7283,83.2554,0,U,36037,999,88175,.39902E-4,.126E-5,0
APRIZESAT 5,2011-044E,2026-06-18T18:19:49.653696,14.81079046,.0052213,98.2452,102.8488,359.2691,0.8435,0,U,37792,999,79902,.11598E-3,.861E-5,0
APRIZESAT 6,2011-044F,2026-06-18T16:54:06.818112,14.76917857,.0044486,98.2362,80.2348,81.3364,335.6808,0,U,37793,999,79737,.92657E-4,.606E-5,0
PROBA-V,2013-021A,2026-06-18T09:13:21.906912,14.23597149,.0005185,98.3584,147.9318,120.6226,239.5465,0,U,39159,999,68128,.38301E-4,.46E-6,0
APRIZESAT 7,2013-066A,2026-06-18T18:20:10.147776,14.91567039,.003512,97.7709,122.9612,203.9549,156.0038,0,U,39416,999,68146,.94718E-4,.903E-5,0
APRIZESAT 8,2013-066K,2026-06-18T19:45:05.314752,14.87655145,.0044381,97.8220,117.2680,280.9923,78.6303,0,U,39425,999,67991,.83016E-4,.711E-5,0
BUGSAT-1 (TITA),2014-033E,2026-06-18T19:39:07.420896,15.15596038,.0028122,98.0428,262.4629,172.8180,187.3460,0,U,40014,999,65608,.13913E-3,.259E-4,0
SAUDISAT 4,2014-033G,2026-06-18T09:41:29.959008,14.79546128,.004612,97.7584,315.4963,70.1505,290.4670,0,U,40016,999,64625,.74909E-4,.519E-5,0
APRIZESAT 9,2014-033J,2026-06-18T15:11:28.205376,14.74216240,.0065801,97.9064,302.7962,194.4917,165.4407,0,U,40018,999,64377,.88868E-4,.554E-5,0
APRIZESAT 10,2014-033K,2026-06-18T14:57:29.084256,14.70883483,.0077394,97.9652,296.5506,269.1750,90.0589,0,U,40019,999,64246,.61064E-4,.337E-5,0
TECHDEMOSAT-1 (TDS-1),2014-037H,2026-06-18T09:57:20.861856,15.13307168,.0004562,98.3815,161.7491,260.1558,99.9156,0,U,40076,999,64841,.34199E-3,.6014E-4,0
TECHNOSAT,2017-042E,2026-06-18T17:05:18.303360,15.04970473,.0019059,97.4294,327.3113,89.4279,270.9132,0,U,42829,999,48693,.21082E-3,.2941E-4,0
FLYING LAPTOP,2017-042G,2026-06-18T20:26:49.515072,15.01155413,.0019612,97.4694,325.3204,116.1799,244.1446,0,U,42831,999,48670,.23235E-3,.2932E-4,0
HAWK-A,2018-099H,2026-06-18T20:34:58.408608,15.24658193,.0033084,97.3908,222.0720,279.6840,80.0661,0,U,43765,999,41335,.19115E-3,.4719E-4,0
HAWK-B,2018-099AN,2026-06-18T16:24:59.563008,15.22838925,.0030385,97.3957,221.3127,299.4016,60.4188,0,U,43794,999,41326,.20266E-3,.473E-4,0
HAWK-C,2018-099AT,2026-06-18T16:47:09.831840,15.28119893,.0038707,97.3885,222.8355,280.1895,79.4980,0,U,43799,999,41414,.21791E-3,.6029E-4,0
SALSAT,2020-068K,2026-06-18T10:53:20.067072,15.29814902,.0007987,97.8850,172.5954,302.8690,57.1780,0,U,46495,999,31555,.21401E-3,.61E-4,0
HAWK-2C,2021-006CT,2026-06-18T20:20:28.223232,15.34679584,.0006887,97.2273,214.1245,179.9530,180.1716,0,U,47502,999,29975,.15455E-3,.5119E-4,0
HAWK-2A,2021-006CW,2026-06-18T20:24:02.181600,15.34694378,.00063,97.2314,214.8057,182.7979,177.3230,0,U,47505,999,29975,.15425E-3,.5111E-4,0
HAWK-2B,2021-006CZ,2026-06-18T20:17:28.150944,15.34784463,.0006913,97.2184,213.1303,181.2785,178.8442,0,U,47508,999,29975,.1705E-3,.5675E-4,0
HAWK-3B,2021-059BE,2026-06-18T18:58:24.248352,15.69671922,.0003184,97.6657,6.6497,322.7987,37.3053,0,U,48931,999,27810,.31249E-3,.36971E-3,0
HAWK-3C,2021-059BX,2026-06-18T02:08:07.415808,15.69618054,.000349,97.6772,11.5690,328.3716,31.7335,0,U,48948,999,27799,.29341E-3,.34621E-3,0
HAWK-3A,2021-059CG,2026-06-18T06:43:19.147872,15.69650937,.000346,97.6716,8.9829,329.5051,30.6008,0,U,48957,999,27802,.32291E-3,.38183E-3,0
HAWK-5C,2022-057Y,2026-06-18T09:33:59.755392,15.51427738,.0004947,97.6605,329.1429,79.6625,280.5183,0,U,52754,999,22653,.23995E-3,.14052E-3,0
HAWK-5B,2022-057AA,2026-06-18T09:33:46.583712,15.51429515,.0005611,97.6614,327.4921,72.4608,287.7256,0,U,52756,999,22653,.24773E-3,.14515E-3,0
HAWK-5A,2022-057AB,2026-06-18T17:17:52.140768,15.51436735,.0005507,97.6613,328.6668,74.2620,285.9238,0,U,52757,999,22658,.26029E-3,.15262E-3,0
